IRIDIUM 36              
1 24967U 97056C   24211.81244379  .00000745  00000+0  24524-3 0  9998
2 24967  86.3983 308.3995 0002130  90.1923 269.9518 14.36917042405910
IRIDIUM 39              
1 25042U 97069D   24211.92152414  .00001338  00000+0  35384-3 0  9992
2 25042  86.3948 349.2586 0016428 306.0368  53.9312 14.48105347402306
IRIDIUM 38              
1 25043U 97069E   24212.43321871  .00000932  00000+0  30563-3 0  9998
2 25043  86.3977   8.4864 0003902  84.2015 275.9627 14.37364939399985
IRIDIUM 42              
1 25077U 97077A   24211.91011491  .00000860  00000+0  29143-3 0  9992
2 25077  86.3974  14.4763 0002767  91.8188 268.3325 14.35654174394940
IRIDIUM 44              
1 25078U 97077B   24211.89561556  .00000865  00000+0  27130-3 0  9991
2 25078  86.3982 357.2795 0002929  53.2544 306.8924 14.39502980397320
IRIDIUM 45              
1 25104U 97082A   24211.93374022  .00017863  00000+0  95539-3 0  9996
2 25104  86.3765 202.1664 0158424  84.0013 277.9251 15.04673125403284
IRIDIUM 24              
1 25105U 97082B   24212.06986712  .00000976  00000+0  29546-3 0  9999
2 25105  86.3907 216.7194 0013616  66.8811 293.3822 14.41290986397052
IRIDIUM 51              
1 25262U 98018A   24212.05804687  .00025078  00000+0  10984-2 0  9997
2 25262  86.3954 211.7885 0140623  26.0643 334.7586 15.13304463398111
